ONEWEB-0043             
1 45149U 20008U   23302.55694405  .00000553  00000+0  15477-2 0  9999
2 45149  87.8910 227.2382 0002394  74.9621 285.1771 13.10372162182245
ONEWEB-0044             
1 45150U 20008V   23302.50979542  .00000604  00000+0  16930-2 0  9996
2 45150  87.8911 227.2459 0002320  73.9152 286.2231 13.10367875183306
ONEWEB-0045             
1 45151U 20008W   23302.51805102  .00000508  00000+0  13967-2 0  9998
2 45151  87.8995 212.1043 0001732  73.7087 286.4231 13.11415371184367
ONEWEB-0047             
1 45152U 20008X   23302.50169821  .00000433  00000+0  12051-2 0  9999
2 45152  87.8906 227.2486 0001905  74.0709 286.0628 13.10372585183043
ONEWEB-0048             
1 45153U 20008Y   23302.49680973  .00000110  00000+0  27940-3 0  9990
2 45153  87.8909 227.2601 0001919  74.5182 285.6158 13.10371427181866
ONEWEB-0049             
1 45154U 20008Z   23302.49845222  .00000169  00000+0  44800-3 0  9999
2 45154  87.8913 227.2306 0001912  77.6782 282.4559 13.10368865182084
ONEWEB-0051             
1 45155U 20008AA  23302.28752828  .00000630  00000+0  17422-2 0  9998
2 45155  87.8999 212.1844 0001610  70.9002 289.2301 13.11419760185013
ONEWEB-0052             
1 45156U 20008AB  23302.49517961  .00000250  00000+0  67884-3 0  9995
2 45156  87.8913 227.2153 0002457  87.6890 272.4519 13.10370166182758
